COMMENT,ORIGINATOR,NORAD_CAT_ID,OBJECT_NAME,OBJECT_TYPE,CLASSIFICATION_TYPE,INTLDES,EPOCH,EPOCH_MICROSECONDS,MEAN_MOTION,ECCENTRICITY,INCLINATION,RA_OF_ASC_NODE,ARG_OF_PERICENTER,MEAN_ANOMALY,EPHEMERIS_TYPE,ELEMENT_SET_NO,REV_AT_EPOCH,BSTAR,MEAN_MOTION_DOT,MEAN_MOTION_DDOT,FILE,TLE_LINE0,TLE_LINE1,TLE_LINE2,OBJECT_ID,OBJECT_NUMBER,SEMIMAJOR_AXIS,PERIOD,APOGEE,PERIGEE,DECAYED,date
GENERATED VIA SPACETRACK.ORG API,18 SPCS,48884,SPACEBEE-101,PAYLOAD,U,21059F,2023/3/3 21:46,180864,15.23645449,0.0007785,97.5792,197.7096,280.5168,79.5191,0,999,9330,0.0016825,0.00040469,0,3850400,0 SPACEBEE-101,1 48884U 21059F   23062.90729376  .00040469  00000-0  16825-2 0  9992,2 48884  97.5792 197.7096 0007785 280.5168  79.5191 15.23645449 93309,2021-059F,48884,6872.993,94.51,500.209,489.507,0,
GENERATED VIA SPACETRACK.ORG API,18 SPCS,48884,SPACEBEE-101,PAYLOAD,U,21059F,2023/3/4 8:48,177568,15.23690743,0.0007774,97.5793,198.1739,278.8649,81.1707,0,999,9337,0.0019278,0.0004648,0,3850871,0 SPACEBEE-101,1 48884U 21059F   23063.36700437  .00046480  00000-0  19278-2 0  9994,2 48884  97.5793 198.1739 0007774 278.8649  81.1707 15.23690743 93377,2021-059F,48884,6872.857,94.507,500.065,489.379,0,
GENERATED VIA SPACETRACK.ORG API,18 SPCS,48884,SPACEBEE-101,PAYLOAD,U,21059F,2023/3/4 8:48,177568,15.23690743,0.0007774,97.5793,198.1739,278.8649,81.1707,0,999,9337,0.0019278,0.0004648,0,3851072,0 SPACEBEE-101,1 48884U 21059F   23063.36700437  .00046480  00000-0  19278-2 0  9994,2 48884  97.5793 198.1739 0007774 278.8649  81.1707 15.23690743 93377,2021-059F,48884,6872.857,94.507,500.065,489.379,0,
GENERATED VIA SPACETRACK.ORG API,18 SPCS,48884,SPACEBEE-101,PAYLOAD,U,21059F,2023/3/5 8:26,824160,15.23776091,0.0007749,97.5793,199.1694,275.4568,84.5784,0,999,9352,0.001872,0.00045239,0,3851939,0 SPACEBEE-101,1 48884U 21059F   23064.35205815  .00045239  00000-0  18720-2 0  9996,2 48884  97.5793 199.1694 0007749 275.4568  84.5784 15.23776091 93523,2021-059F,48884,6872.6,94.502,499.791,489.139,0,
GENERATED VIA SPACETRACK.ORG API,18 SPCS,48884,SPACEBEE-101,PAYLOAD,U,21059F,2023/3/5 14:45,636576,15.23799297,0.0007746,97.5793,199.4348,274.4943,85.5409,0,999,9356,0.0018754,0.00045353,0,3852017,0 SPACEBEE-101,1 48884U 21059F   23064.61472959  .00045353  00000-0  18754-2 0  9994,2 48884  97.5793 199.4348 0007746 274.4943  85.5409 15.23799297 93567,2021-059F,48884,6872.53,94.501,499.719,489.072,0,
GENERATED VIA SPACETRACK.ORG API,18 SPCS,48884,SPACEBEE-101,PAYLOAD,U,21059F,2023/3/5 21:03,48960,15.23825491,0.0007791,97.5793,199.7002,273.6187,86.4159,0,999,9360,0.0019016,0.00046028,0,3852256,0 SPACEBEE-101,1 48884U 21059F   23064.87739640  .00046028  00000-0  19016-2 0  9997,2 48884  97.5793 199.7002 0007791 273.6187  86.4159 15.23825491 93601,2021-059F,48884,6872.452,94.499,499.671,488.962,0,
GENERATED VIA SPACETRACK.ORG API,18 SPCS,48884,SPACEBEE-101,PAYLOAD,U,21059F,2023/3/6 19:07,565504,15.23910355,0.0007842,97.5795,200.6294,270.3405,89.6933,0,999,9374,0.0017353,0.0004208,0,3852934,0 SPACEBEE-101,1 48884U 21059F   23065.79669636  .00042080  00000-0  17353-2 0  9992,2 48884  97.5795 200.6294 0007842 270.3405  89.6933 15.23910355 93746,2021-059F,48884,6872.196,94.494,499.451,488.672,0,
GENERATED VIA SPACETRACK.ORG API,18 SPCS,48884,SPACEBEE-101,PAYLOAD,U,21059F,2023/3/6 19:07,565504,15.23910355,0.0007842,97.5795,200.6294,270.3405,89.6933,0,999,9374,0.0017353,0.0004208,0,3853141,0 SPACEBEE-101,1 48884U 21059F   23065.79669636  .00042080  00000-0  17353-2 0  9992,2 48884  97.5795 200.6294 0007842 270.3405  89.6933 15.23910355 93746,2021-059F,48884,6872.196,94.494,499.451,488.672,0,
GENERATED VIA SPACETRACK.ORG API,18 SPCS,48884,SPACEBEE-101,PAYLOAD,U,21059F,2023/3/7 7:43,589536,15.2396865,0.000788,97.5797,201.1604,268.7748,91.2586,0,999,9382,0.002115,0.00051458,0,3853630,0 SPACEBEE-101,1 48884U 21059F   23066.32198599  .00051458  00000-0  21150-2 0  9996,2 48884  97.5797 201.1604 0007880 268.7748  91.2586 15.23968650 93825,2021-059F,48884,6872.021,94.49,499.301,488.471,0,
GENERATED VIA SPACETRACK.ORG API,18 SPCS,48884,SPACEBEE-101,PAYLOAD,U,21059F,2023/3/7 7:43,589536,15.2396865,0.000788,97.5797,201.1604,268.7748,91.2586,0,999,9382,0.002115,0.00051458,0,3854072,0 SPACEBEE-101,1 48884U 21059F   23066.32198599  .00051458  00000-0  21150-2 0  9996,2 48884  97.5797 201.1604 0007880 268.7748  91.2586 15.23968650 93825,2021-059F,48884,6872.021,94.49,499.301,488.471,0,
GENERATED VIA SPACETRACK.ORG API,18 SPCS,48884,SPACEBEE-101,PAYLOAD,U,21059F,2023/3/8 7:21,444800,15.24060376,0.0007862,97.5803,202.1559,266.0327,94.0011,0,999,9397,0.001844,0.00044938,0,3854468,0 SPACEBEE-101,1 48884U 21059F   23067.30685700  .00044938  00000-0  18440-2 0  9993,2 48884  97.5803 202.1559 0007862 266.0327  94.0011 15.24060376 93976,2021-059F,48884,6871.745,94.484,499.013,488.208,0,
GENERATED VIA SPACETRACK.ORG API,18 SPCS,48884,SPACEBEE-101,PAYLOAD,U,21059F,2023/3/8 7:21,444800,15.24060376,0.0007862,97.5803,202.1559,266.0327,94.0011,0,999,9397,0.001844,0.00044938,0,3855077,0 SPACEBEE-101,1 48884U 21059F   23067.30685700  .00044938  00000-0  18440-2 0  9993,2 48884  97.5803 202.1559 0007862 266.0327  94.0011 15.24060376 93976,2021-059F,48884,6871.745,94.484,499.013,488.208,0,
GENERATED VIA SPACETRACK.ORG API,18 SPCS,48884,SPACEBEE-101,PAYLOAD,U,21059F,2023/3/9 2:16,995840,15.24150021,0.0007848,97.5807,202.9524,263.611,96.4233,0,999,9409,0.0027764,0.00068088,0,3855193,0 SPACEBEE-101,1 48884U 21059F   23068.09471060  .00068088  00000-0  27764-2 0  9993,2 48884  97.5807 202.9524 0007848 263.6110  96.4233 15.24150021 94090,2021-059F,48884,6871.476,94.479,498.734,487.948,0,
GENERATED VIA SPACETRACK.ORG API,18 SPCS,48884,SPACEBEE-101,PAYLOAD,U,21059F,2023/3/9 8:34,337408,15.24165444,0.0007781,97.5805,203.2179,262.3829,97.6524,0,999,9413,0.00206,0.00050403,0,3855576,0 SPACEBEE-101,1 48884U 21059F   23068.35731872  .00050403  00000-0  20600-2 0  9996,2 48884  97.5805 203.2179 0007781 262.3829  97.6524 15.24165444 94133,2021-059F,48884,6871.43,94.478,498.641,487.948,0,
GENERATED VIA SPACETRACK.ORG API,18 SPCS,48884,SPACEBEE-101,PAYLOAD,U,21059F,2023/3/9 21:10,797120,15.24223967,0.0007818,97.5806,203.7489,260.5599,99.4754,0,999,9421,0.0021473,0.0005265,0,3855951,0 SPACEBEE-101,1 48884U 21059F   23068.88252080  .00052650  00000-0  21473-2 0  9998,2 48884  97.5806 203.7489 0007818 260.5599  99.4754 15.24223967 94217,2021-059F,48884,6871.254,94.474,498.491,487.747,0,
GENERATED VIA SPACETRACK.ORG API,18 SPCS,48884,SPACEBEE-101,PAYLOAD,U,21059F,2023/3/10 8:12,672960,15.24275719,0.0007852,97.5806,204.2137,259.3842,100.6511,0,999,9428,0.0022383,0.00054987,0,3856412,0 SPACEBEE-101,1 48884U 21059F   23069.34205640  .00054987  00000-0  22383-2 0  9996,2 48884  97.5806 204.2137 0007852 259.3842 100.6511 15.24275719 94283,2021-059F,48884,6871.098,94.471,498.358,487.568,0,
GENERATED VIA SPACETRACK.ORG API,18 SPCS,48884,SPACEBEE-101,PAYLOAD,U,21059F,2023/3/10 14:30,86080,15.24295159,0.0007886,97.5808,204.4796,259.0968,100.9381,0,999,9432,0.0018273,0.00044842,0,3856749,0 SPACEBEE-101,1 48884U 21059F   23069.60464220  .00044842  00000-0  18273-2 0  9998,2 48884  97.5808 204.4796 0007886 259.0968 100.9381 15.24295159 94324,2021-059F,48884,6871.04,94.47,498.323,487.486,0,
GENERATED VIA SPACETRACK.ORG API,18 SPCS,48884,SPACEBEE-101,PAYLOAD,U,21059F,2023/3/10 20:48,125952,15.24322856,0.0007908,97.5808,204.7449,258.1642,101.8708,0,999,9436,0.001912,0.00046976,0,3856975,0 SPACEBEE-101,1 48884U 21059F   23069.86722368  .00046976  00000-0  19120-2 0  9998,2 48884  97.5808 204.7449 0007908 258.1642 101.8708 15.24322856 94368,2021-059F,48884,6870.957,94.468,498.255,487.388,0,
GENERATED VIA SPACETRACK.ORG API,18 SPCS,48884,SPACEBEE-101,PAYLOAD,U,21059F,2023/3/11 7:50,507424,15.24371232,0.0007918,97.5808,205.2095,256.5639,103.4715,0,999,9443,0.0021216,0.00052246,0,3857412,0 SPACEBEE-101,1 48884U 21059F   23070.32673041  .00052246  00000-0  21216-2 0  9990,2 48884  97.5808 205.2095 0007918 256.5639 103.4715 15.24371232 94436,2021-059F,48884,6870.811,94.465,498.116,487.236,0,
GENERATED VIA SPACETRACK.ORG API,18 SPCS,48884,SPACEBEE-101,PAYLOAD,U,21059F,2023/3/11 7:50,507424,15.24371232,0.0007918,97.5808,205.2095,256.5639,103.4715,0,999,9443,0.0021216,0.00052246,0,3857581,0 SPACEBEE-101,1 48884U 21059F   23070.32673041  .00052246  00000-0  21216-2 0  9990,2 48884  97.5808 205.2095 0007918 256.5639 103.4715 15.24371232 94436,2021-059F,48884,6870.811,94.465,498.116,487.236,0,
GENERATED VIA SPACETRACK.ORG API,18 SPCS,48884,SPACEBEE-101,PAYLOAD,U,21059F,2023/3/11 20:26,160192,15.24414571,0.00079,97.581,205.741,255.1826,104.8536,0,999,9451,0.001658,0.00040803,0,3857959,0 SPACEBEE-101,1 48884U 21059F   23070.85186528  .00040803  00000-0  16580-2 0  9991,2 48884  97.5810 205.7410 0007900 255.1826 104.8536 15.24414571 94518,2021-059F,48884,6870.681,94.462,497.974,487.118,0,
GENERATED VIA SPACETRACK.ORG API,18 SPCS,48884,SPACEBEE-101,PAYLOAD,U,21059F,2023/3/12 7:28,177760,15.24458789,0.0007897,97.5809,206.2056,253.4344,106.6026,0,999,9458,0.0018904,0.0004663,0,3858534,0 SPACEBEE-101,1 48884U 21059F   23071.31134465  .00046630  00000-0  18904-2 0  9992,2 48884  97.5809 206.2056 0007897 253.4344 106.6026 15.24458789 94589,2021-059F,48884,6870.548,94.46,497.839,486.987,0,
GENERATED VIA SPACETRACK.ORG API,18 SPCS,48884,SPACEBEE-101,PAYLOAD,U,21059F,2023/3/12 9:02,379584,15.24464955,0.0007887,97.581,206.2719,253.3395,106.6977,0,999,9459,0.0018837,0.00046472,0,3858597,0 SPACEBEE-101,1 48884U 21059F   23071.37698356  .00046472  00000-0  18837-2 0  9991,2 48884  97.5810 206.2719 0007887 253.3395 106.6977 15.24464955 94599,2021-059F,48884,6870.53,94.459,497.813,486.976,0,
